OBJECT C                
1 57582U 23117C   24311.25658776  .00021914  00000+0  10140-2 0  9992
2 57582  97.4717  21.6242 0010553 152.8301 207.3488 15.20100884 68730
